[{"OBJECT_NAME":"QIANFAN-80","OBJECT_ID":"2025-046H","EPOCH":"2026-03-09T21:44:23.947008","MEAN_MOTION":13.50999558,"ECCENTRICITY":0.00119514,"INCLINATION":88.9752,"RA_OF_ASC_NODE":310.8022,"ARG_OF_PERICENTER":238.4861,"MEAN_ANOMALY":121.5124,"EPHEMERIS_TYPE":0,"CLASSIFICATION_TYPE":"U","NORAD_CAT_ID":63166,"ELEMENT_SET_NO":999,"REV_AT_EPOCH":5930,"BSTAR":0.00020039103,"MEAN_MOTION_DOT":1.41e-6,"MEAN_MOTION_DDOT":0},{"OBJECT_NAME":"THORAD AGENA D DEB","OBJECT_ID":"1970-025RV","EPOCH":"2026-03-09T14:40:04.304352","MEAN_MOTION":13.51469473,"ECCENTRICITY":0.0041585,"INCLINATION":99.3866,"RA_OF_ASC_NODE":5.6672,"ARG_OF_PERICENTER":356.6795,"MEAN_ANOMALY":3.406,"EPHEMERIS_TYPE":0,"CLASSIFICATION_TYPE":"U","NORAD_CAT_ID":42515,"ELEMENT_SET_NO":999,"REV_AT_EPOCH":60627,"BSTAR":0.00029598,"MEAN_MOTION_DOT":1.52e-6,"MEAN_MOTION_DDOT":0}]
